NORAD_CAT_ID,OBJECT_NAME,OBJECT_TYPE,EPOCH,MEAN_MOTION,ECCENTRICITY,INCLINATION,RA_OF_ASC_NODE,ARG_OF_PERICENTER,MEAN_ANOMALY,BSTAR,MEAN_MOTION_DOT,MEAN_MOTION_DDOT,TLE_LINE0,TLE_LINE1,TLE_LINE2,SEMIMAJOR_AXIS,PERIOD,APOGEE,PERIGEE,DECAYED
52301.0,STARLINK-3768,PAYLOAD,2022-05-14 22:00:00,15.73289007,0.0002419,53.215,259.821,19.9896,163.7899,-0.00036637,-0.00051927,0.0,0 STARLINK-3768,1 52301U 22041AS  22134.91667824 -.00051927  00000-0 -36637-3 0  9999,2 52301  53.2150 259.8210 0002419  19.9896 163.7899 15.73289007  1303,6727.641,91.528,351.134,347.879,0.0
52301.0,STARLINK-3768,PAYLOAD,2022-05-15 06:00:00,15.73207726,0.0002193,53.2174,258.1716,23.8725,248.6606,-3.5281e-05,-5.572e-05,0.0,0 STARLINK-3768,1 52301U 22041AS  22135.25001157 -.00005572  00000-0 -35281-4 0  9998,2 52301  53.2174 258.1716 0002193  23.8725 248.6606 15.73207726  4935,6727.873000000001,91.533,351.214,348.26300000000015,0.0
52301.0,STARLINK-3768,PAYLOAD,2022-05-15 14:00:01,15.73254603,0.0002468,53.215,256.5216,17.9626,343.81199999999984,-0.00043579,-0.00061489,0.0,0 STARLINK-3768,1 52301U 22041AS  22135.58335648 -.00061489  00000-0 -43579-3 0  9996,2 52301  53.2150 256.5216 0002468  17.9626 343.8120 15.73254603  4985,6727.74,91.53,351.265,347.944,0.0
52301.0,STARLINK-3768,PAYLOAD,2022-05-15 22:00:00,15.7323452,0.0002589,53.2144,254.8719,17.0045,73.6893,-0.00037972,-0.00053663,0.0,0 STARLINK-3768,1 52301U 22041AS  22135.91667824 -.00053663  00000-0 -37972-3 0  9992,2 52301  53.2144 254.8719 0002589  17.0045  73.6893 15.73234520  1301,6727.797,91.531,351.404,347.92,0.0
52301.0,STARLINK-3768,PAYLOAD,2022-05-16 06:00:02,15.73194267,0.0002396,53.2147,253.2207,23.5993,156.0824,4.371600000000001e-05,5.517e-05,0.0,0 STARLINK-3768,1 52301U 22041AS  22136.25002315  .00005517  00000-0  43716-4 0  9995,2 52301  53.2147 253.2207 0002396  23.5993 156.0824 15.73194267  5081,6727.9119999999975,91.534,351.389,348.165,0.0
52301.0,STARLINK-3768,PAYLOAD,2022-05-16 14:00:01,15.73210234,0.0002619,53.2149,251.5733,21.3217,247.2171,-0.00063935,-0.0008946,0.0,0 STARLINK-3768,1 52301U 22041AS  22136.58334491 -.00089460  00000-0 -63935-3 0  9999,2 52301  53.2149 251.5733 0002619  21.3217 247.2171 15.73210234  1303,6727.866,91.533,351.49300000000005,347.969,0.0
52301.0,STARLINK-3768,PAYLOAD,2022-05-16 20:00:01,15.73163943,0.0002715,53.2148,250.3364,15.1436,230.0971,-0.00016188,-0.00023247,0.0,0 STARLINK-3768,1 52301U 22041AS  22136.83334491 -.00023247  00000-0 -16188-3 0  9996,2 52301  53.2148 250.3364 0002715  15.1436 230.0971 15.73163943  5182,6727.998000000001,91.535,351.69,348.036,0.0
52301.0,STARLINK-3768,PAYLOAD,2022-05-16 22:00:00,15.73157674,0.0002667,53.2149,249.9235,14.0264,343.4344,-8.776799999999999e-05,-0.00012901,0.0,0 STARLINK-3768,1 52301U 22041AS  22136.91667824 -.00012901  00000-0 -87768-4 0  9992,2 52301  53.2149 249.9235 0002667  14.0264 343.4344 15.73157674  1304,6728.016,91.536,351.675,348.086,0.0
52301.0,STARLINK-3768,PAYLOAD,2022-05-17 12:00:00,15.73199552,0.0002717,53.2148,247.0372,14.602,48.3735,0.0001781999999999,0.00024463,0.0,0 STARLINK-3768,1 52301U 22041AS  22137.50001157  .00024463  00000-0  17820-3 0  9994,2 52301  53.2148 247.0372 0002717  14.6020  48.3735 15.73199552  5283,6727.896,91.533,351.589,347.93300000000005,0.0
52301.0,STARLINK-3768,PAYLOAD,2022-05-17 14:00:01,15.73212525,0.0002793,53.2146,246.6252,14.3584,160.91299999999995,2.0367e-05,2.238e-05,0.0,0 STARLINK-3768,1 52301U 22041AS  22137.58335648  .00002238  00000-0  20367-4 0  9994,2 52301  53.2146 246.6252 0002793  14.3584 160.9130 15.73212525  1304,6727.859,91.532,351.60400000000016,347.845,0.0
52301.0,STARLINK-3768,PAYLOAD,2022-05-17 22:00:01,15.73257321,0.0002825,53.2139,244.9751,12.4768,251.7585,-0.00065111,-0.00091262,0.0,0 STARLINK-3768,1 52301U 22041AS  22137.91668981 -.00091262  00000-0 -65111-3 0  9992,2 52301  53.2139 244.9751 0002825  12.4768 251.7585 15.73257321  1306,6727.732,91.53,351.497,347.696,0.0
52301.0,STARLINK-3768,PAYLOAD,2022-05-18 12:00:00,15.73258724,0.0002867,53.2142,242.0887,14.5004,315.3183,-0.00015909,-0.0002295,0.0,0 STARLINK-3768,1 52301U 22041AS  22138.50001157 -.00022950  00000-0 -15909-3 0  9992,2 52301  53.2142 242.0887 0002867  14.5004 315.3183 15.73258724  5449,6727.728,91.53,351.522,347.664,0.0
52301.0,STARLINK-3768,PAYLOAD,2022-05-18 14:00:01,15.73267483,0.000296,53.2142,241.6769,14.3457,67.7172,-0.00032096,-0.00045566,0.0,0 STARLINK-3768,1 52301U 22041AS  22138.58334491 -.00045566  00000-0 -32096-3 0  9994,2 52301  53.2142 241.6769 0002960  14.3457  67.7172 15.73267483  1306,6727.703,91.529,351.559,347.576,0.0
52301.0,STARLINK-3768,PAYLOAD,2022-05-18 22:00:00,15.73273666,0.0003024,53.2141,240.0267,13.2052,157.8508,-0.001053,-0.0014637,0.0,0 STARLINK-3768,1 52301U 22041AS  22138.91667824 -.00146370  00000-0 -10530-2 0  9993,2 52301  53.2141 240.0267 0003024  13.2052 157.8508 15.73273666  1306,6727.685,91.529,351.585,347.516,0.0
52301.0,STARLINK-3768,PAYLOAD,2022-05-19 06:00:00,15.73128671,0.0002905,53.2142,238.3756,15.7972,244.2024,0.00045592,0.00063664,0.0,0 STARLINK-3768,1 52301U 22041AS  22139.25001157  .00063664  00000-0  45592-3 0  9991,2 52301  53.2142 238.3756 0002905  15.7972 244.2024 15.73128671  5566,6728.099,91.537,351.918,348.009,0.0
52301.0,STARLINK-3768,PAYLOAD,2022-05-19 14:00:01,15.73199867,0.0003212,53.2137,236.7283,13.3464,335.6025,-3.7725e-05,-5.915e-05,0.0,0 STARLINK-3768,1 52301U 22041AS  22139.58335648 -.00005915  00000-0 -37725-4 0  9999,2 52301  53.2137 236.7283 0003212  13.3464 335.6025 15.73199867  1308,6727.896,91.533,351.922,347.6,0.0
52301.0,STARLINK-3768,PAYLOAD,2022-05-19 22:00:00,15.73233865,0.0003188999999999,53.213,235.0779,12.1851,65.6431,-0.00042976,-0.0006061,0.0,0 STARLINK-3768,1 52301U 22041AS  22139.91667824 -.00060610  00000-0 -42976-3 0  9996,2 52301  53.2130 235.0779 0003189  12.1851  65.6431 15.73233865  1301,6727.799,91.531,351.809,347.51800000000014,0.0
52301.0,STARLINK-3768,PAYLOAD,2022-05-20 04:00:00,15.73151615,0.000301,53.2131,233.8394,14.4051,40.1395,0.00066805,0.0009401,0.0,0 STARLINK-3768,1 52301U 22041AS  22140.16667824  .00094010  00000-0  66805-3 0  9991,2 52301  53.2131 233.8394 0003010  14.4051  40.1395 15.73151615  5708,6728.033,91.536,351.923,347.87300000000016,0.0
52301.0,STARLINK-3768,PAYLOAD,2022-05-20 14:00:01,15.732423,0.000328,53.2134,231.7799,12.335,243.3398,-0.00051181,-0.00071994,0.0,0 STARLINK-3768,1 52301U 22041AS  22140.58334491 -.00071994  00000-0 -51181-3 0  9997,2 52301  53.2134 231.7799 0003280  12.3350 243.3398 15.73242300  5774,6727.775,91.531,351.846,347.43300000000005,0.0
52301.0,STARLINK-3768,PAYLOAD,2022-05-20 22:00:00,15.73206695,0.0002989,53.2175,230.1298,11.4139,333.0022,-2.9852e-05,-4.812e-05,0.0,0 STARLINK-3768,1 52301U 22041AS  22140.91667824 -.00004812  00000-0 -29852-4 0  9999,2 52301  53.2175 230.1298 0002989  11.4139 333.0022 15.73206695  5820,6727.876,91.533,351.75199999999984,347.73,0.0
52301.0,STARLINK-3768,PAYLOAD,2022-05-21 06:00:00,15.73211227,0.0003214,53.2147,228.4786,8.1602,65.389,0.00030241,0.00042061,0.0,0 STARLINK-3768,1 52301U 22041AS  22141.25001157  .00042061  00000-0  30241-3 0  9997,2 52301  53.2147 228.4786 0003214   8.1602  65.3890 15.73211227  5871,6727.863,91.533,351.891,347.566,0.0
52301.0,STARLINK-3768,PAYLOAD,2022-05-21 14:00:01,15.73214948,0.0003538,53.2151,226.831,6.1774,156.4274,0.00013729,0.00018705,0.0,0 STARLINK-3768,1 52301U 22041AS  22141.58335648  .00018705  00000-0  13729-3 0  9998,2 52301  53.2151 226.8310 0003538   6.1774 156.4274 15.73214948  1303,6727.853,91.532,352.098,347.337,0.0
52301.0,STARLINK-3768,PAYLOAD,2022-05-21 22:00:00,15.732518300000002,0.000348,53.2145,225.18,8.2134,243.3098,2.3182e-05,2.638e-05,0.0,0 STARLINK-3768,1 52301U 22041AS  22141.91667824  .00002638  00000-0  23182-4 0  9992,2 52301  53.2145 225.1800 0003480   8.2134 243.3098 15.73251830  1302,6727.746999999999,91.53,351.954,347.271,0.0
52301.0,STARLINK-3768,PAYLOAD,2022-05-22 06:00:00,15.73235483,0.0003339,53.2149,223.5297,12.4171,328.0465,-0.00040515,-0.00057204,0.0,0 STARLINK-3768,1 52301U 22041AS  22142.25001157 -.00057204  00000-0 -40515-3 0  9990,2 52301  53.2149 223.5297 0003339  12.4171 328.0465 15.73235483  6039,6727.794,91.531,351.905,347.413,0.0
52301.0,STARLINK-3768,PAYLOAD,2022-05-22 14:00:01,15.73190396,0.00036,53.2151,221.8822,9.1131,60.3088,-0.00051982,-0.00072948,0.0,0 STARLINK-3768,1 52301U 22041AS  22142.58334491 -.00072948  00000-0 -51982-3 0  9998,2 52301  53.2151 221.8822 0003600   9.1131  60.3088 15.73190396  1302,6727.9230000000025,91.534,352.21,347.366,0.0
52301.0,STARLINK-3768,PAYLOAD,2022-05-22 22:00:01,15.73121689,0.0003598,53.2152,220.2312,3.7787,154.626,-8.4464e-05,-0.00012424,0.0,0 STARLINK-3768,1 52301U 22041AS  22142.91668981 -.00012424  00000-0 -84464-4 0  9994,2 52301  53.2152 220.2312 0003598   3.7787 154.6260 15.73121689  1301,6728.118,91.538,352.404,347.56300000000016,0.0
52301.0,STARLINK-3768,PAYLOAD,2022-05-23 04:00:00,15.73146287,0.0003619,53.2174,218.99400000000003,19.0353,115.7133,0.00070753,0.00099656,0.0,0 STARLINK-3768,1 52301U 22041AS  22143.16667824  .00099656  00000-0  70753-3 0  9992,2 52301  53.2174 218.9940 0003619  19.0353 115.7133 15.73146287  6177,6728.0480000000025,91.536,352.348,347.478,0.0
52301.0,STARLINK-3768,PAYLOAD,2022-05-23 14:00:01,15.73136287,0.0003898,53.2152,216.9337,11.0752,325.1007,0.00064174,0.00090195,0.0,0 STARLINK-3768,1 52301U 22041AS  22143.58334491  .00090195  00000-0  64174-3 0  9998,2 52301  53.2152 216.9337 0003898  11.0752 325.1007 15.73136287  6249,6728.0769999999975,91.537,352.564,347.319,0.0
52301.0,STARLINK-3768,PAYLOAD,2022-05-23 22:00:01,15.73207508,0.0003683,53.2148,215.2826,8.6025,56.5417,-0.00026103,-0.00037123,0.0,0 STARLINK-3768,1 52301U 22041AS  22143.91668981 -.00037123  00000-0 -26103-3 0  9993,2 52301  53.2148 215.2826 0003683   8.6025  56.5417 15.73207508  1303,6727.874,91.533,352.217,347.261,0.0
